STARLINK-3696           
1 51965U 22025K   23243.87584793  .00002630  00000+0  20383-3 0  9991
2 51965  53.0532 205.8232 0002021  87.1704 272.9516 15.04776270 82113
STARLINK-3699           
1 51966U 22025L   23243.87285904  .00004885  00000+0  34631-3 0  9999
2 51966  53.0539 204.5343 0001624  97.6830 262.4343 15.06429780 82131
STARLINK-3681           
1 51968U 22025N   23243.33277795  .00011644  00000+0  76433-3 0  9998
2 51968  53.0527 204.0850 0001237  96.6692 263.4439 15.08064359 82094
STARLINK-3680           
1 51969U 22025P   23243.89733878  .00006194  00000+0  41545-3 0  9999
2 51969  53.0544 201.0880 0001437 318.3935  41.6945 15.08067564 82178
STARLINK-3677           
1 51970U 22025Q   23243.27208532  .00000011  00000+0  19617-4 0  9995
2 51970  53.0534 207.3053 0001588  97.1169 263.0000 15.06397221 82040
STARLINK-3669           
1 51971U 22025R   23243.87062806  .00000920  00000+0  77439-4 0  9999
2 51971  53.0536 201.6586 0001364  88.7901 271.3245 15.08033351 82173
STARLINK-3671           
1 51972U 22025S   23243.92449527  .00000674  00000+0  64179-4 0  9998
2 51972  53.0543 204.3586 0001237  79.7704 280.3425 15.06389801 82141
STARLINK-3679           
1 51973U 22025T   23243.26838741 -.00001112  00000+0 -55788-4 0  9992
2 51973  53.0547 207.2451 0001410  93.9918 266.1232 15.06404824 82047
STARLINK-3672           
1 51974U 22025U   23243.32368412  .00000176  00000+0  30746-4 0  9997
2 51974  53.0539 207.0535 0001425  91.4763 268.6389 15.06396840 82045
STARLINK-3674           
1 51975U 22025V   23243.90106810 -.00000115  00000+0  11147-4 0  9992
2 51975  53.0555 200.0199 0001456  96.6419 263.4735 15.06390320 82205
STARLINK-3663           
1 51976U 22025W   23243.93513886  .00005511  00000+0  35602-3 0  9996
2 51976  53.2164 212.4111 0001983  77.7608 282.3606 15.09668583 82063
STARLINK-3660           
1 51977U 22025X   23243.88113212 -.00000034  00000+0  15955-4 0  9996
2 51977  53.2164 192.7978 0001287  94.5074 265.6066 15.08834076 82320
STARLINK-3666           
1 51978U 22025Y   23243.34200436  .00000964  00000+0  78663-4 0  9999
2 51978  53.2164 215.2313 0001485  92.6720 267.4443 15.08841473 81969
STARLINK-3656           
1 51979U 22025Z   23243.02457253  .00000205  00000+0  30985-4 0  9999
2 51979  53.2170 216.6372 0001456  93.1195 266.9964 15.08835268 81920
STARLINK-3649           
1 51980U 22025AA  23243.92985226 -.00000101  00000+0  11720-4 0  9998
2 51980  53.2170 212.5686 0001558  94.7869 265.3301 15.08837375 82057
STARLINK-3635           
1 51981U 22025AB  23243.87833234  .00000861  00000+0  72205-4 0  9991
2 51981  53.2169 212.8013 0001241  97.1929 262.9205 15.08833785 82042
STARLINK-3650           
1 51982U 22025AC  23243.92617534  .00000258  00000+0  34318-4 0  9994
2 51982  53.2171 212.5854 0001016  84.5839 275.5269 15.08831390 82057
STARLINK-3655           
1 51983U 22025AD  23243.41096376  .00000798  00000+0  68196-4 0  9994
2 51983  53.2166 214.9022 0001356  92.0113 268.1035 15.08846825 81979
STARLINK-3664           
1 51984U 22025AE  23243.44040968  .00000775  00000+0  66792-4 0  9999
2 51984  53.2164 214.7693 0001702  84.2381 275.8805 15.08844329 81983
STARLINK-3651           
1 51985U 22025AF  23243.93449275  .00000125  00000+0  25952-4 0  9990
2 51985  53.2161 212.5597 0001442  97.3785 262.7371 15.08833362 82051
STARLINK-3645           
1 51986U 22025AG  23243.28583260  .00000293  00000+0  36540-4 0  9993
2 51986  53.2174 215.3122 0001772  85.0722 275.0472 15.08838684 81962
STARLINK-3644           
1 51987U 22025AH  23243.44776913  .00001385  00000+0  10510-3 0  9992
2 51987  53.2162 214.7347 0001383  89.7135 270.4016 15.08844594 81981
STARLINK-3640           
1 51988U 22025AJ  23243.36312664  .00001227  00000+0  95165-4 0  9998
2 51988  53.2171 215.1165 0001284  91.2758 268.8382 15.08842514 81970
STARLINK-3642           
1 51989U 22025AK  23243.31160602  .00000714  00000+0  62910-4 0  9999
2 51989  53.2163 215.3480 0001301  91.5163 268.5979 15.08844618 81962
STARLINK-3657           
1 51990U 22025AL  23243.87649306 -.00001043  00000+0 -47461-4 0  9997
2 51990  53.2172 192.8079 0001060  91.8551 268.2562 15.08840060 82326
STARLINK-3652           
1 51991U 22025AM  23243.43673512  .00000360  00000+0  40734-4 0  9991
2 51991  53.2169 214.7875 0002057  74.0392 286.0827 15.08838653 81982
STARLINK-3643           
1 51992U 22025AN  23243.26929143  .00001231  00000+0  95408-4 0  9993
2 51992  53.2160 195.5380 0001477  87.0040 273.1121 15.08841660 81807
STARLINK-3648           
1 51993U 22025AP  23243.69065226  .00000805  00000+0  68695-4 0  9998
2 51993  53.2181 213.6484 0001212  92.0332 268.0799 15.08836003 82029
STARLINK-3647           
1 51994U 22025AQ  23243.86177653  .00000365  00000+0  40999-4 0  9994
2 51994  53.2166 192.8803 0001380  86.9920 273.1230 15.08833647 81901
STARLINK-3636           
1 51995U 22025AR  23243.87281428  .00000222  00000+0  32042-4 0  9994
2 51995  53.2188 192.8240 0001200  90.7772 269.3358 15.08833581 81893
STARLINK-3538           
1 51996U 22025AS  23243.26192629  .00001319  00000+0  10095-3 0  9993
2 51996  53.2170 195.5715 0001393  87.2051 272.9101 15.08843606 81813
STARLINK-3589           
1 51997U 22025AT  23243.86913088  .00000985  00000+0  79991-4 0  9999
2 51997  53.2165 192.8421 0001248  87.2242 272.8893 15.08838059 81894
STARLINK-3618           
1 51998U 22025AU  23243.16624901  .00000634  00000+0  57917-4 0  9991
2 51998  53.2174 196.0018 0001377  96.1921 263.9228 15.08840852 81807
STARLINK-3667           
1 51999U 22025AV  23243.32448806  .00002002  00000+0  14384-3 0  9999
2 51999  53.2165 195.2814 0001471  98.1080 262.0079 15.08834710 81828
STARLINK-3653           
1 52000U 22025AW  23243.88016827 -.00002362  00000+0 -13041-3 0  9998
2 52000  53.2168 192.7115 0001383  81.1853 278.9296 15.08825811 81912
STARLINK-3659           
1 52001U 22025AX  23243.89121585  .00000755  00000+0  65506-4 0  9994
2 52001  53.2169 192.7451 0001331  97.2700 262.8444 15.08830430 81919
STARLINK-3668           
1 52002U 22025AY  23243.29232956  .00001075  00000+0  85645-4 0  9996
2 52002  53.2168 195.4432 0001336  93.1043 267.0102 15.08833647 81829
STARLINK-3654           
1 52003U 22025AZ  23243.22145019 -.00000037  00000+0  15771-4 0  9994
2 52003  53.2164 195.7513 0001445  94.4919 265.6239 15.08840806 81815
STARLINK-3537           
1 52088U 22029A   23243.19934848  .00015905  00000+0  10154-2 0  9990
2 52088  53.2159 155.5916 0001332  99.9316 260.1826 15.08830638 83084
STARLINK-3722           
1 52089U 22029B   23243.49101163  .00000244  00000+0  33424-4 0  9997
2 52089  53.2163 264.5431 0001401  91.7023 268.4129 15.08836830 81585
STARLINK-3712           
1 52090U 22029C   23243.47996847  .00000879  00000+0  73303-4 0  9992
2 52090  53.2162 264.5892 0001389  86.2291 273.8860 15.08840005 81589
STARLINK-3713           
1 52091U 22029D   23243.48734139  .00007014  00000+0  45822-3 0  9990
2 52091  53.2146 264.5601 0001458  79.1380 280.9776 15.08851921 81581
STARLINK-3716           
1 52092U 22029E   23243.08621942  .00000269  00000+0  34998-4 0  9992
2 52092  53.2161 266.3568 0001368  86.8360 273.2789 15.08831301 81527
STARLINK-3673           
1 52093U 22029F   23243.53980372  .00001185  00000+0  92541-4 0  9994
2 52093  53.2157 264.3354 0001465  84.2388 275.8771 15.08845580 81594
STARLINK-3714           
1 52094U 22029G   23243.47628607  .00000357  00000+0  40501-4 0  9997
2 52094  53.2153 264.6088 0001515  92.1530 267.9636 15.08843325 81587
STARLINK-3701           
1 52095U 22029H   23243.46524692  .00001131  00000+0  89135-4 0  9993
2 52095  53.2162 264.6599 0001357  81.1554 278.9592 15.08841125 81582
STARLINK-3717           
1 52096U 22029J   23243.44407834 -.00004283  00000+0 -25097-3 0  9999
2 52096  53.2164 254.7545 0001370  93.9562 266.1587 15.08865647 81703
STARLINK-3665           
1 52098U 22029L   23243.46892651  .00000970  00000+0  79018-4 0  9998
2 52098  53.2161 264.6430 0001387  85.0439 275.0712 15.08842471 81583
STARLINK-3702           
1 52100U 22029N   23243.06412917  .00001011  00000+0  81598-4 0  9994
2 52100  53.2159 266.4605 0001418  87.4405 272.6749 15.08840797 81528
STARLINK-3703           
1 52101U 22029P   23243.91668981  .00051732  00000+0  33942-2 0  9996
2 52101  53.2135 262.6628 0001529  90.5041 246.8240 15.07183724  5816
STARLINK-3709           
1 52102U 22029Q   23243.52968321  .00000689  00000+0  61352-4 0  9998
2 52102  53.2167 254.3689 0001452  89.0724 271.0435 15.08842325 81723
STARLINK-3705           
1 52103U 22029R   23243.43671936 -.00001818  00000+0 -96114-4 0  9993
2 52103  53.2159 254.7852 0001390  87.3285 272.7867 15.08859238 81701
STARLINK-3706           
1 52105U 22029T   23243.03288888  .00001967  00000+0  14164-3 0  9998
2 52105  53.2162 256.6011 0001598  88.5163 271.6012 15.08834471 81648
STARLINK-3670           
1 52106U 22029U   23243.45052834  .00001044  00000+0  83649-4 0  9996
2 52106  53.2157 264.7262 0001455  93.9499 266.1659 15.08846252 81573
STARLINK-3658           
1 52107U 22029V   23243.09449122  .00000805  00000+0  68667-4 0  9994
2 52107  53.2164 256.3235 0001390  87.2062 272.9089 15.08838739 81651
STARLINK-3698           
1 52108U 22029W   23243.03560981  .00000577  00000+0  54340-4 0  9995
2 52108  53.2169 256.5876 0001362  88.7065 271.4083 15.08839004 81641
STARLINK-3687           
1 52110U 22029Y   23243.42937218  .00000885  00000+0  73664-4 0  9994
2 52110  53.2163 254.8212 0001491  90.8634 269.2529 15.08845701 81700
STARLINK-3708           
1 52111U 22029Z   23243.41462844  .00003923  00000+0  26426-3 0  9991
2 52111  53.2173 254.8858 0001038  97.3764 262.7346 15.08867343 81702
STARLINK-3734           
1 52112U 22029AA  23243.02456799  .00000828  00000+0  70133-4 0  9997
2 52112  53.2167 256.6375 0001256  91.1301 268.9835 15.08840360 81645
